{
  "norad_id": 68542,
  "name": "STARLINK-37326",
  "history": [
    {
      "epoch": "2026-04-09T20:00:01.999008Z",
      "apogee_km": 277.8781136435364,
      "perigee_km": 276.85183523907745,
      "latitude_deg": -49.18253455084071,
      "longitude_deg": 31.16638750643963,
      "height_km": 294.56633276537764,
      "semi_major_axis_km": 6655.501974441307,
      "eccentricity": 7.71e-05,
      "inclination_deg": 53.1588,
      "raan_deg": 228.8529,
      "arg_perigee_deg": 55.9112,
      "mean_anomaly_deg": 233.5209,
      "mean_motion_rev_day": 15.9893768
    }
  ]
}