STARLINK-37326          
1 68542U 26070A   26099.83335647 -.00903077  27318-3 -18221-2 0  9993
2 68542  53.1588 228.8529 0000771  55.9112 233.5209 15.98937680  2384
